[
    {
        "Altitude(m)": 607897.614732368,
        "Argument of Periapsis(deg)": 0.0,
        "Eccentricity": 0.0,
        "Inclination(deg)": 60.0,
        "Latitude(deg)": -14.292935068084072,
        "Longitude(deg)": 36.61878072778272,
        "Mean Anomaly(deg)": -16.363600000000062,
        "RAAN(deg)": 145.0,
        "Satellite Name": "Test1 659",
        "Satellite Number": 659,
        "Semi-Major Axis(m)": 6980739.136638005,
        "Time(s)": 0
    },
    {
        "Altitude(m)": 607750.8159275238,
        "Argument of Periapsis(deg)": 0.00010418945913296404,
        "Eccentricity": 0.0,
        "Inclination(deg)": 60.0,
        "Latitude(deg)": -13.758775958684815,
        "Longitude(deg)": 36.90584865888435,
        "Mean Anomaly(deg)": -15.74349385453821,
        "RAAN(deg)": 144.99957995086027,
        "Satellite Name": "Test1 659",
        "Satellite Number": 659,
        "Semi-Major Axis(m)": 6980739.136638005,
        "Time(s)": 10
    }
]